index,Address,Category,City,Country,Latitude,Longitude,Name
0,42 rue d'Alsace,Gym / Fitness Center,Villeurbanne,France,45.7683651,4.8697577,L'Appart Fitness
0,153 bis rue Vendôme,Gym / Fitness Center,Lyon,France,45.76315790756915,4.8461950381369565,Wellness Sport Club
0,,Gym,,France,45.711254589846405,4.876109606633448,We Are Sport
0,332 avenue Général de Gaulle,Gym / Fitness Center,Bron,France,45.7259270739398,4.927987134260756,Genae Club
0,Pôle de commerces et de loisirs Confluence,Gym / Fitness Center,Lyon,France,45.74093895930785,4.818515808466163,Fitness Park
0,18 rue Joseph Serlin,Gym / Fitness Center,Lyon,France,45.7675819,4.837107800000001,L'Appart Fitness
0,66 Avenue Charles de Gaulle,Gym / Fitness Center,Tassin-la-Demi-Lune,France,45.76368600410348,4.78089749668459,Wellness Sport Club
0,69 rue de Gorge de Loup,Gym / Fitness Center,Lyon,France,45.76943886620391,4.80228066444397,Club Ludôgym
0,8 Rue des Farges,Gym / Fitness Center,Lyon,France,45.75672267,4.81989062,Peyruseigt Jean Pierre
0,22 Avenue Sidoine Apollinaire,Gym / Fitness Center,Lyon,France,45.7731958,4.7953642,L’Appart Fitness
0,18 Rue des Remparts d'Ainay,Gym / Fitness Center,Lyon,France,45.75299013,4.82973754,Maxifit
0,81 rue de la république,Gym / Fitness Center,Lyon,France,45.75852935836827,4.834935500397895,L'Appart Fitness
0,1 Place des Tapis,Gym / Fitness Center,Lyon,France,45.77467305,4.83020381,Lili Fitness
0,1 Rue De La République,Gym / Fitness Center,Lyon,France,45.767514108827406,4.8364054618421575,L'Appart Fitness
0,1 Quai Jean Moulin,Gym / Fitness Center,Lyon,France,45.7679103,4.8377494,L'Appart Fitness
0,17 Rue des Docks,Gym / Fitness Center,Lyon,France,45.785468,4.810226,L'Appart Fitness
0,38 Rue Victor Lagrange,Gym / Fitness Center,Lyon,France,45.7441854,4.8358723,L'Appart Fitness
0,4 Rue Pravaz,Gym / Fitness Center,Lyon,France,45.7605126,4.8416422,L'Appart Fitness
0,1 avenue du Bon Pasteur,Gym / Fitness Center,Écully,France,45.786760413564465,4.782290932348079,Elixia
0,74 Avenue Jean Jaurès,Gym / Fitness Center,Lyon,France,45.747695,4.843145,L'Appart Fitness
0,133 Grande Rue de la Guillotière,Gym / Fitness Center,Lyon,France,45.7506585,4.8495898,L'Appart Fitness
0,31 Rue Bossuet,Gym / Fitness Center,Lyon,France,45.76776599999999,4.848796,L'Appart Fitness
0,,Gym / Fitness Center,,France,45.78566803067453,4.764536456412959,Gymnase EMLYON
0,64 Rue Coste,Gym / Fitness Center,Caluire-et-Cuire,France,45.78675685,4.83416302,Ucanfit
0,21 Route de Vienne,Gym / Fitness Center,Lyon,France,45.74411451816559,4.850485324859619,Fashion Club Jorkyball
0,49 Avenue Félix Faure,Gym / Fitness Center,Lyon,France,45.75309304,4.85398578,Massage Lyon L’orchidée Zen
0,56 Boulevard de l'Yzeron,Gym / Fitness Center,Oullins,France,45.720036,4.7987,L'Appart Fitness
0,99 Avenue des Frères Lumière,Gym / Fitness Center,Lyon,France,45.74455244,4.86966717,Club 48
0,,Gym / Fitness Center,Saint-Cyr-au-Mont-d'Or,France,45.81241967844091,4.827611791344835,Club Equilibre
0,557 Rue Pierre Auguste Roiret,Gym / Fitness Center,Craponne,France,45.7527706,4.7399487,Héry Vincent
0,129 Boulevard Stalingrad,Gym / Fitness Center,Villeurbanne,France,45.77365169999999,4.8592493,L'Appart Fitness
0,6 Cours André Philip,Gym / Fitness Center,Villeurbanne,France,45.772726059969656,4.859899878501892,Centre José Sanchez
0,6 cours André Philip,Gym / Fitness Center,Villeurbanne,France,45.772639,4.860043,NPA CENTER
0,10 Route du Perollier,Gym / Fitness Center,Dardilly,France,45.80212059999999,4.7660737,L'Appart Fitness
0,141 rue Marius Berliet,Gym / Fitness Center,Lyon,France,45.73743127510413,4.86833234218303,Neoness Lyon-Mairie Du 8Ème
0,40 Avenue Henri Barbusse,Gym / Fitness Center,Villeurbanne,France,45.76724508,4.87930767,Body Gym Center
0,141 rue Bataille,Gym / Fitness Center,Lyon,France,45.73647217575949,4.88066716992762,L'Appart Fitness
0,22 avenue Sidoine Apollinairr,Gym,Lyon,France,45.773543838585766,4.7953382961446325,Gigagym
0,237 Rue Francis De Pressensé,Gym / Fitness Center,Villeurbanne,France,45.769894,4.890951,JA'coaching
0,69 rue Joseph Moulin,Gym / Fitness Center,Craponne,France,45.7425089,4.7098602,L’Appart Fitness
0,90 Avenue Général Leclerc,Gym / Fitness Center,Caluire-et-Cuire,France,45.804985,4.8654873,L'Appart Fitness
0,19 B Rue Poizat,Gym / Fitness Center,Villeurbanne,France,45.7571179,4.894366,L'Appart Fitness
0,,Gym,,France,45.778909674374596,4.806215130182156,Keep Cool
0,5 Route du Dôme,Gym / Fitness Center,Chaponost,France,45.6952715,4.7649701,L'Appart Fitness
0,20 Quai Gailleton,Gym,Lyon,France,45.754373860709,4.834368679948742,So | Fit
0,Place Louis Pradel,Gym,Lyon,France,45.76752671209205,4.838026739158445,Amazonia
0,38 Rue Victor Lagrange,Gym,Lyon,France,45.74420194878287,4.835691177075451,Wide Club
0,,Gym,Lyon,France,45.74411567611888,4.835657115767637,Amazonia
0,153 rue Vendome,Gym,Lyon,France,45.769491048600976,4.845323778157883,Le Club
0,31 rue Bossuet,Gym,Lyon,France,45.76775381283169,4.84879518281892,Amazonia
0,100 Cours Gambetta,Gym,Lyon,France,45.75109296586895,4.850682266919516,Elixia
0,347 Rue Garibaldi,Gym,Lyon,France,45.7464193,4.8508792,ELANCIA LYON 7
0,129 rue Servient,Gym,Lyon,France,45.76079804138777,4.854222519834967,Fitness By Moving
0,Centre de Shopping La Part-Dieu,Gym,Lyon,France,45.761631396156396,4.857137248826836,Keep Cool
0,35 rue Sainte Geneviève,Gym,Lyon,France,45.76590675576718,4.864640172486102,Cercle de Gymnastique Bellecombe
0,92  bis rue D’Inkermann,Gym,Lyon,France,45.764029,4.865784,Neoness Lyon Part-Dieu
0,30 Rue des Remparts d'Ainay,Health & Beauty Service,Lyon,France,45.7526048,4.831024200000002,THERAFORM LYON 2
0,16 rue Jacques Prévert,Gym / Fitness Center,Rillieux-la-Pape,France,45.8166582,4.901718499999999,L'Appart Fitness
0,172 Rue Felix Faure,Gym,Lyon,France,45.75454288307632,4.8684352062985505,Keep Cool
0,7 rue Jean Zay,Gym / Fitness Center,Saint-Priest,France,45.70587,4.91272,L'Appart Fitness
0,141 rue Marius Berliet,Gym,Lyon,France,45.737325,4.868408,Neoness Lyon-Mairie Du 8Ème
0,56 rue Paul Verlaine,Gym,Villeurbanne,France,45.763531,4.87957,Wellness Sport Club Villeurbanne
0,31 Rue poizat,Gym,Villeurbanne,France,45.75713299884847,4.893664564334898,Gigagym Villeurbanne
0,184 route de genas,Gym,Lyon,France,45.753791186847614,4.893562023872633,Keep Cool
0,12 Impasse des Muguets,Gym,Bron,France,45.72596872,4.89076311,Jérôme Charvet
0,MARCIPARK Bât. A,Gym / Fitness Center,Marcilly-d'Azergues,France,45.866538,4.719568,L'Appart Fitness
0,1 Rue des Frères Voisin,Gym / Fitness Center,Chaponnay,France,45.6484077,4.919935199999999,L'Appart Fitness
0,7 Place Laurent Bel,Gym / Fitness Center,Meyzieu,France,45.765065,5.004268,"RAPHAT PERRIN Edwige - Reflexologie - ""massages bien-être"""
0,7 Rue du 11 Novembre 1918,Gym / Fitness Center,Mions,France,45.66328102,4.95523001,Spécific Beauté
0,41 Allée Louis Lumière,Gym / Fitness Center,Massieux,France,45.9039364,4.819833,L'Appart Fitness
0,Rue du Pré Caillat,Gym / Fitness Center,Beynost,France,45.82294604,4.99462887,Let Fitness
0,15 Route Route Départementale 386,Gym / Fitness Center,Grigny,France,45.6075807,4.7733567,L’Appart Fitness
0,Zone Industrielle Richard BLOCH BEAUVALLON,Gym / Fitness Center,Chassagny,France,45.6179159,4.710868,L'Appart Fitness
0,13 Rue de la République,Gym / Fitness Center,Mions,France,45.66487249,4.95818318,Spécific Beauté
0,113 Route Nationale 6,Gym / Fitness Center,Saint-Bonnet-de-Mure,France,45.6960332,5.0192599,L'Appart Fitness
0,Rue Yves Farge,Gym / Fitness Center,Givors,France,45.592852120511054,4.766700554173441,L'Appart Fitness
0,"17 bis, rue Juliette Récamier",Yoga Studio,Lyon,France,45.76478909999999,4.854037800000015,YOGA SKY STUDIO
0,8 Marie-Anne Leroudier,Martial Arts Dojo,Lyon,France,45.7717859,4.821178400000008,IKM KRAV MAGA LYON
0,110 qu Pierre Scize,Martial Arts Dojo,Lyon,France,45.767227,4.826388,Okinawa Shaolin
0,1 Rue Dominique Perfetti,Boxing Gym,Lyon,France,45.77200682,4.81963649,Lyon Espace Boxes
0,8 Rue De La Claire,Boxing Gym,Lyon,France,45.780392,4.80697,Lyon Boxe
0,4 Rue Vaucanson,Boxing Gym,Lyon,France,45.77289742,4.83334187,Boxe Lyon Aclsd
0,,Gym Pool,,France,45.77202734266775,4.8759475038919105,Piscine Boulloche
0,14 rue Saint Théodore,Martial Arts Dojo,Lyon,France,45.749011641213016,4.86318826675415,Maison du Judo
0,1 rue Des Vergers,Climbing Gym,Limonest,France,45.806882,4.771541,Block'Out Lyon
0,18 Rue d'Austerlitz,Sporting Goods Shop,Lyon,France,45.77554183,4.83419725,Aux Arts Martiaux Lyonnais
0,4 Rue de la Ligne de l'Est,Boxing Gym,Villeurbanne,France,45.75709535,4.90267503,Club Fighters 69
0,Pôle de commerces et de loisirs Confluence,Playground,Lyon,France,45.74083875335236,4.818033144137362,Azium
0,Avenue Mathieu Misery,Track Stadium,Tassin-la-Demi-Lune,France,45.757369431513034,4.7682709112475345,Stade René Dubot
0,74 rue Greuze,Climbing Gym,Villeurbanne,France,45.769868363049824,4.894884416469353,MRoc
