index,Address,Category,City,Country,Latitude,Longitude,Name
0,16 Rue d'Auch,Salon / Barbershop,Colomiers,France,43.60853122,1.33959651,COUPES COULEURS Salons
0,50 Rue Gaston Doumergue,Salon / Barbershop,Tournefeuille,France,43.58380291,1.3445851,CJL COIFFURE
0,36 route De Bayonne,Salon / Barbershop,Toulouse,France,43.609647,1.392785,Franck Provost - Coiffeur Toulouse
0,54 route De Bayonne,Salon / Barbershop,Toulouse,France,43.609671,1.393391,Jean Louis David - Coiffeur Toulouse
0,32 Rue du Ctre,Salon / Barbershop,Colomiers,France,43.6112871,1.3320406,Coiff Club
0,1 Avenue de Grande Bretagne,Salon / Barbershop,Toulouse,France,43.61042219999999,1.328057299999955,Au naturel coiffure
0,1 Avenue de Grande Bretagne,Salon / Barbershop,Toulouse,France,43.599188,1.4150515000000041,Au naturel coiffure
0,54 Route de Blagnac,Salon / Barbershop,Toulouse,France,43.613416,1.412347,Petite Confidence
0,12 Rue Pasteur,Salon / Barbershop,Blagnac,France,43.63474009,1.39598103,Didier Commincas
0,37 Boulevard Jean Brunhes,Salon / Barbershop,Toulouse,France,43.6015967,1.42077864,KOLOR POP
0,28 Avenue de Grande Bretagne,Salon / Barbershop,Toulouse,France,43.59720947,1.42170134,M&Y COIFFURE
0,3 boulevard Firmin Pons,Salon / Barbershop,Blagnac,France,43.634583,1.399105,Franck Provost - Coiffeur Blagnac
0,70 Avenue Etienne Billières,Salon / Barbershop,Toulouse,France,43.59678953,1.42401468,Roland Rouzoul Creation
0,53 Rue du Tchad,Salon / Barbershop,Toulouse,France,43.59638026,1.42399316,Art et Style
0,2 Rue Bernadet,Salon / Barbershop,Plaisance-du-Touch,France,43.5707265,1.31246203,Coiff Club by Angélique
0,204 Route de Seysses,Salon / Barbershop,Toulouse,France,43.56430444,1.40972878,Rodrigues Marie-Carmen
0,35 route De Toulouse,Salon / Barbershop,Cornebarrieu,France,43.650975,1.332642,Jean Louis David - Coiffeur Cornebarrieu
0,7 Rue de la Poste,Salon / Barbershop,Cornebarrieu,France,43.65043836,1.3251935,Alexandre
0,36 Rue Léon Gambetta,Salon / Barbershop,Toulouse,France,43.60290238,1.44185808,O'Labo
0,27 Rue du Languedoc,Salon / Barbershop,Toulouse,France,43.598148,1.44535851,Jordana Coiffure 1938
0,8 Rue De La Croix Baragnon,Salon / Barbershop,Toulouse,France,43.599781944757545,1.4464356014825626,DESSANGE
0,31 rue Bouquières,Salon / Barbershop,Toulouse,France,43.5985240890439,1.4465202518050921,Tonsor & Cie.
0,9 bis rue Du Rempart Villeneuve,Salon / Barbershop,Toulouse,France,43.6055,1.446389,Franck Provost - Coiffeur Toulouse
0,1 Rue Montardy,Salon / Barbershop,Toulouse,France,43.6041614,1.4466668000000027,Empreinte Coiffure
0,7 all Jules Guesde,Salon / Barbershop,Toulouse,France,43.593278,1.446322,Alex Saint-Lary
0,15 Rue Ozenne,Salon / Barbershop,Toulouse,France,43.59647503,1.4472444,Coiffure Philippe
0,2 Boulevard de Strasbourg,Salon / Barbershop,Toulouse,France,43.6061994,1.4484712,DILOY'S
0,7 Av. du Général Leclerc Philippe de Hauteclocque,Salon / Barbershop,Cugnaux,France,43.5395301,1.33984211,Tujague Luc
0,62 RUE DE METZ,Salon / Barbershop,Toulouse,France,43.6005591,1.4505772,INSTITUT AESTHETICA
0,2 rue D'Aubuisson,Salon / Barbershop,Toulouse,France,43.603768,1.451079,Franck Provost - Coiffeur Toulouse
0,10 Rue du Pré Vicinal,Salon / Barbershop,Cugnaux,France,43.53774667,1.34254457,Molinie Peggy
0,72 AvenueVictor Segoffin,Salon / Barbershop,Toulouse,France,43.58385904,1.4505219,Sapo Germain
0,60 Rue de la Colombette,Salon / Barbershop,Toulouse,France,43.60473444,1.45442153,Les Garçons Coiffeurs
0,61 avenue De Garossos,Salon / Barbershop,Beauzelle,France,43.669257,1.366907,Coiff&Co - Coiffeur Beauzelle
0,2 Impasse du Ruisseau,Salon / Barbershop,Beauzelle,France,43.670608,1.36776,Soft Hair
0,78 Avenue Camille Pujol,Salon / Barbershop,Toulouse,France,43.60048461,1.46487848,Coiff Club by Florian
0,60 Avenue Saint-Exupéry,Salon / Barbershop,Toulouse,France,43.58564423,1.46540906,M H
0,140 Avenue des Minimes,Medical Center,Toulouse,France,43.62437928,1.43450929,When U Want TROPPEA Franchisé indépendant
0,35 Rue Jean Jaurès,Salon / Barbershop,Fenouillet,France,43.67656302,1.39477968,A And K Coiffure Mixte Et Barbier
0,86 Route d'Albi,Salon / Barbershop,Toulouse,France,43.63313604,1.46337335,Hairstyle
0,2 Place Nougein,Salon / Barbershop,Aucamville,France,43.66810462,1.42842039,"CD "" HAIR COIFFURE"
0,1 Place du Busca,Salon / Barbershop,Toulouse,France,43.58874664,1.45069029,Bergamote
0,156 avenue Jean Chaubet,Salon / Barbershop,Toulouse,France,43.605533,1.48059,Coiff&Co - Coiffeur Toulouse
0,3 allée De Fraixinet,Salon / Barbershop,Roques,France,43.513438,1.370477,Franck Provost - Coiffeur Roques
0,4 Rue Antoine-Laurent de Lavoisier,Salon / Barbershop,Launaguet,France,43.6590761,1.45636121,COUPES COULEURS Salons
0,92 chemin De Gabardie,Salon / Barbershop,Toulouse,France,43.635046,1.482127,Jean Louis David - Coiffeur Toulouse
0,Rue des Usines,Salon / Barbershop,Fenouillet,France,43.68986166,1.40115683,Pascal Coste Coiffure
0,route De Lavaur,Salon / Barbershop,Toulouse,France,43.631644,1.485025,Franck Provost - Coiffeur Toulouse
0,53 Rue Bernard Amiel,Salon / Barbershop,Saint-Alban,France,43.68875416,1.42343758,Clodaly Coiffure
0,442 Avenue de Fronton,Salon / Barbershop,Toulouse,France,43.66442961,1.43063364,Scandi Corps
0,7 Centre Commercial St Caprais,Salon / Barbershop,L'Union,France,43.6561483,1.4798468,Coiff Club
0,121 Route de Bessières,Salon / Barbershop,Fonbeauzard,France,43.68167612,1.44866245,COUPES COULEURS Salons
0,9 Rue Boltar,Salon / Barbershop,Seysses,France,43.49690524,1.31426464,Chris Coiffure
0,Route  De Tarbes,Salon / Barbershop,Fonsorbes,France,43.536541,1.230439,Saint Algue - Coiffeur Fonsorbes
0,av Gameville,Salon / Barbershop,Saint orens de gameville,France,43.566379,1.517206,Audrey Coiffure et Perruques Médicales
0,170 La Tolosane,Salon / Barbershop,Labège,France,43.55018229,1.50871889,Beauty Bubble
0,La Tolosane,Salon / Barbershop,Labège,France,43.547007,1.51121,Franck Provost - Coiffeur Labège
0,Rue de l'Occitanie,Salon / Barbershop,Quint-Fonsegrives,France,43.58590883,1.53004987,Nuance'Hair
0,1 Rue de l'Église,Salon / Barbershop,Pechbonnieu,France,43.70320912,1.46671389,Coiffure Sb
0,2 Place du Castelet,Salon / Barbershop,Bruguières,France,43.72621795,1.41263898,Cd'Hair Coiffure
0,Chemin de Saint-Jean,Salon / Barbershop,Montrabé,France,43.64413337,1.53307554,COUPES COULEURS SALONS
0,21 Allée Niel,Salon / Barbershop,Muret,France,43.45961789,1.32539246,Formes Et Couleurs Limited
0,61 Avenue de Toulouse,Salon / Barbershop,Escalquens,France,43.51542838,1.54819605,La Parisienne Coiffure
0,9 Place Nationale,Salon / Barbershop,Saint-Lys,France,43.5134567,1.17634728,COUPES COULEURS Salons
0,2 Place de la Croix Blanche,Salon / Barbershop,Eaunes,France,43.42617102,1.35731479,Styl Coiffure
0,21 Rue Pérignon,Salon / Barbershop,Grenade,France,43.77071658,1.29318222,RENAISSANCE COIFFURE
0,51 Rue Castelbajac,Salon / Barbershop,Grenade,France,43.77247506,1.29410543,Avantage
0,17 Avenue du Champ de Foire,Salon / Barbershop,Gragnague,France,43.68239273,1.58348714,La Tete A L'envers
